{
  "type": "FeatureCollection",
  "features": [
    {
      "type": "Feature",
      "properties": {
        "norad_id": 35616,
        "name": "IRIDIUM 33 DEB",
        "group": "iridium-33-debris",
        "lat": 10.489159200560302,
        "lon": 166.68686433890272,
        "alt_km": 619.1054732298508,
        "timestamp": "2025-12-09T05:43:21.111212+00:00",
        "meta_object_name": "IRIDIUM 33 DEB",
        "meta_object_id": "1997-051QN",
        "meta_epoch": "2025-12-08T11:07:50.751840",
        "meta_mean_motion": 14.81642207,
        "meta_eccentricity": 0.00095137,
        "meta_inclination": 86.3551,
        "meta_ra_of_asc_node": 347.7164,
        "meta_arg_of_pericenter": 179.1989,
        "meta_mean_anomaly": 180.925,
        "meta_ephemeris_type": 0,
        "meta_classification_type": "U",
        "meta_norad_cat_id": 35616,
        "meta_element_set_no": 999,
        "meta_rev_at_epoch": 87511,
        "meta_bstar": 0.0020633393,
        "meta_mean_motion_dot": 0.00016284,
        "meta_mean_motion_ddot": 0,
        "tle_line1": "1 35616U 97051QN  25342.46378185  .00016284  00000+0  20633-2 0  9997",
        "tle_line2": "2 35616  86.3551 347.7164 0009513 179.1989 180.9250 14.81642207875117"
      },
      "geometry": {
        "type": "Point",
        "coordinates": [
          166.68686433890272,
          10.489159200560302
        ]
      }
    },
    {
      "type": "Feature",
      "properties": {
        "norad_id": 35618,
        "name": "IRIDIUM 33 DEB",
        "group": "iridium-33-debris",
        "lat": -54.30258179666111,
        "lon": -10.077103481810706,
        "alt_km": 724.3238376712106,
        "timestamp": "2025-12-09T05:43:21.111224+00:00",
        "meta_object_name": "IRIDIUM 33 DEB",
        "meta_object_id": "1997-051QQ",
        "meta_epoch": "2025-12-05T07:42:53.148672",
        "meta_mean_motion": 14.52258119,
        "meta_eccentricity": 0.00302089,
        "meta_inclination": 86.3407,
        "meta_ra_of_asc_node": 356.7447,
        "meta_arg_of_pericenter": 46.3254,
        "meta_mean_anomaly": 314.0448,
        "meta_ephemeris_type": 0,
        "meta_classification_type": "U",
        "meta_norad_cat_id": 35618,
        "meta_element_set_no": 999,
        "meta_rev_at_epoch": 65286,
        "meta_bstar": 0.00091388234,
        "meta_mean_motion_dot": 3.753e-05,
        "meta_mean_motion_ddot": 0,
        "tle_line1": "1 35618U 97051QQ  25339.32144848  .00003753  00000+0  91388-3 0  9990",
        "tle_line2": "2 35618  86.3407 356.7447 0030208  46.3254 314.0448 14.52258119652865"
      },
      "geometry": {
        "type": "Point",
        "coordinates": [
          -10.077103481810706,
          -54.30258179666111
        ]
      }
    },
    {
      "type": "Feature",
      "properties": {
        "norad_id": 35620,
        "name": "IRIDIUM 33 DEB",
        "group": "iridium-33-debris",
        "lat": 71.2607124369774,
        "lon": 28.196907367249466,
        "alt_km": 855.8443642918655,
        "timestamp": "2025-12-09T05:43:21.111234+00:00",
        "meta_object_name": "IRIDIUM 33 DEB",
        "meta_object_id": "1997-051QS",
        "meta_epoch": "2025-12-08T09:10:03.259488",
        "meta_mean_motion": 14.37817712,
        "meta_eccentricity": 0.01428944,
        "meta_inclination": 86.3872,
        "meta_ra_of_asc_node": 219.2913,
        "meta_arg_of_pericenter": 273.357,
        "meta_mean_anomaly": 85.129,
        "meta_ephemeris_type": 0,
        "meta_classification_type": "U",
        "meta_norad_cat_id": 35620,
        "meta_element_set_no": 999,
        "meta_rev_at_epoch": 59903,
        "meta_bstar": 0.0061742604,
        "meta_mean_motion_dot": 0.00020996,
        "meta_mean_motion_ddot": 0,
        "tle_line1": "1 35620U 97051QS  25342.38198217  .00020996  00000+0  61743-2 0  9991",
        "tle_line2": "2 35620  86.3872 219.2913 0142894 273.3570  85.1290 14.37817712599036"
      },
      "geometry": {
        "type": "Point",
        "coordinates": [
          28.196907367249466,
          71.2607124369774
        ]
      }
    },
    {
      "type": "Feature",
      "properties": {
        "norad_id": 35622,
        "name": "IRIDIUM 33 DEB",
        "group": "iridium-33-debris",
        "lat": 78.36882241435598,
        "lon": -75.86343447323885,
        "alt_km": 548.0746445636232,
        "timestamp": "2025-12-09T05:43:21.111245+00:00",
        "meta_object_name": "IRIDIUM 33 DEB",
        "meta_object_id": "1997-051QU",
        "meta_epoch": "2025-12-08T18:19:37.394400",
        "meta_mean_motion": 15.03927643,
        "meta_eccentricity": 0.0007585,
        "meta_inclination": 86.2056,
        "meta_ra_of_asc_node": 265.5603,
        "meta_arg_of_pericenter": 342.6559,
        "meta_mean_anomaly": 47.239,
        "meta_ephemeris_type": 0,
        "meta_classification_type": "U",
        "meta_norad_cat_id": 35622,
        "meta_element_set_no": 999,
        "meta_rev_at_epoch": 87300,
        "meta_bstar": 0.0061818,
        "meta_mean_motion_dot": 0.00086206,
        "meta_mean_motion_ddot": 0,
        "tle_line1": "1 35622U 97051QU  25342.76362725  .00086206  00000+0  61818-2 0  9991",
        "tle_line2": "2 35622  86.2056 265.5603 0007585 342.6559  47.2390 15.03927643873006"
      },
      "geometry": {
        "type": "Point",
        "coordinates": [
          -75.86343447323885,
          78.36882241435598
        ]
      }
    },
    {
      "type": "Feature",
      "properties": {
        "norad_id": 35628,
        "name": "IRIDIUM 33 DEB",
        "group": "iridium-33-debris",
        "lat": 11.098130947755651,
        "lon": 11.352960637314242,
        "alt_km": 663.1947450107027,
        "timestamp": "2025-12-09T05:43:21.111256+00:00",
        "meta_object_name": "IRIDIUM 33 DEB",
        "meta_object_id": "1997-051RA",
        "meta_epoch": "2025-12-08T19:51:11.189376",
        "meta_mean_motion": 14.67493768,
        "meta_eccentricity": 0.0010931,
        "meta_inclination": 86.3576,
        "meta_ra_of_asc_node": 10.8203,
        "meta_arg_of_pericenter": 356.3974,
        "meta_mean_anomaly": 3.7159,
        "meta_ephemeris_type": 0,
        "meta_classification_type": "U",
        "meta_norad_cat_id": 35628,
        "meta_element_set_no": 999,
        "meta_rev_at_epoch": 86389,
        "meta_bstar": 0.0020098,
        "meta_mean_motion_dot": 0.00011424,
        "meta_mean_motion_ddot": 0,
        "tle_line1": "1 35628U 97051RA  25342.82721284  .00011424  00000+0  20098-2 0  9998",
        "tle_line2": "2 35628  86.3576  10.8203 0010931 356.3974   3.7159 14.67493768863890"
      },
      "geometry": {
        "type": "Point",
        "coordinates": [
          11.352960637314242,
          11.098130947755651
        ]
      }
    },
    {
      "type": "Feature",
      "properties": {
        "norad_id": 35631,
        "name": "IRIDIUM 33 DEB",
        "group": "iridium-33-debris",
        "lat": 17.745506051827476,
        "lon": -158.6797402822186,
        "alt_km": 724.1068837583398,
        "timestamp": "2025-12-09T05:43:21.111267+00:00",
        "meta_object_name": "IRIDIUM 33 DEB",
        "meta_object_id": "1997-051RD",
        "meta_epoch": "2025-12-06T21:23:47.071392",
        "meta_mean_motion": 14.47286545,
        "meta_eccentricity": 0.00185223,
        "meta_inclination": 86.3689,
        "meta_ra_of_asc_node": 23.4943,
        "meta_arg_of_pericenter": 135.5581,
        "meta_mean_anomaly": 46.1978,
        "meta_ephemeris_type": 0,
        "meta_classification_type": "U",
        "meta_norad_cat_id": 35631,
        "meta_element_set_no": 999,
        "meta_rev_at_epoch": 87112,
        "meta_bstar": 0.00062002851,
        "meta_mean_motion_dot": 2.292e-05,
        "meta_mean_motion_ddot": 0,
        "tle_line1": "1 35631U 97051RD  25340.89151703  .00002292  00000+0  62003-3 0  9996",
        "tle_line2": "2 35631  86.3689  23.4943 0018522 135.5581  46.1978 14.47286545871121"
      },
      "geometry": {
        "type": "Point",
        "coordinates": [
          -158.6797402822186,
          17.745506051827476
        ]
      }
    },
    {
      "type": "Feature",
      "properties": {
        "norad_id": 35680,
        "name": "IRIDIUM 33 DEB",
        "group": "iridium-33-debris",
        "lat": 73.81244442621286,
        "lon": -170.51197764071242,
        "alt_km": 923.5770672127837,
        "timestamp": "2025-12-09T05:43:21.111277+00:00",
        "meta_object_name": "IRIDIUM 33 DEB",
        "meta_object_id": "1997-051RJ",
        "meta_epoch": "2025-12-07T09:19:47.246592",
        "meta_mean_motion": 14.20776466,
        "meta_eccentricity": 0.01503971,
        "meta_inclination": 86.1018,
        "meta_ra_of_asc_node": 23.8914,
        "meta_arg_of_pericenter": 295.6462,
        "meta_mean_anomaly": 74.8204,
        "meta_ephemeris_type": 0,
        "meta_classification_type": "U",
        "meta_norad_cat_id": 35680,
        "meta_element_set_no": 999,
        "meta_rev_at_epoch": 60625,
        "meta_bstar": 0.0056071361,
        "meta_mean_motion_dot": 0.00013594,
        "meta_mean_motion_ddot": 0,
        "tle_line1": "1 35680U 97051RJ  25341.38874128  .00013594  00000+0  56071-2 0  9992",
        "tle_line2": "2 35680  86.1018  23.8914 0150397 295.6462  74.8204 14.20776466606251"
      },
      "geometry": {
        "type": "Point",
        "coordinates": [
          -170.51197764071242,
          73.81244442621286
        ]
      }
    }
  ]
}